COMMENT,ORIGINATOR,NORAD_CAT_ID,OBJECT_NAME,OBJECT_TYPE,CLASSIFICATION_TYPE,INTLDES,EPOCH,EPOCH_MICROSECONDS,MEAN_MOTION,ECCENTRICITY,INCLINATION,RA_OF_ASC_NODE,ARG_OF_PERICENTER,MEAN_ANOMALY,EPHEMERIS_TYPE,ELEMENT_SET_NO,REV_AT_EPOCH,BSTAR,MEAN_MOTION_DOT,MEAN_MOTION_DDOT,FILE,TLE_LINE0,TLE_LINE1,TLE_LINE2,OBJECT_ID,OBJECT_NUMBER,SEMIMAJOR_AXIS,PERIOD,APOGEE,PERIGEE
"GENERATED VIA SPACETRACK.ORG API","JSPOC","33498","STARS (KUKAI)","PAYLOAD","U","09002G","2016-01-14 02:36:51","934752","14.77971453","0.0010581","98.2657","166.3364","210.9439","201.5037","0","999","37506","0.00016153","1.11e-05","0","1980075","0 STARS (KUKAI)","1 33498U 09002G   16014.10893443  .00001110  00000-0  16153-3 0  9994","2 33498  98.2657 166.3364 0010581 210.9439 201.5037 14.77971453375065","2009-002G","33498","7013.871","97.430","643.157","628.315"
"GENERATED VIA SPACETRACK.ORG API","JSPOC","37782","CZ-4B R/B","ROCKET BODY","U","11043B","2016-01-14 02:37:44","495328","14.37179668","0.0194182","99.463","198.9891","28.9624","332.2171","0","999","23147","3.1455e-05","5.5e-07","0","1980109","0 CZ-4B R/B","1 37782U 11043B   16014.10954277  .00000055  00000-0  31455-4 0  9995","2 37782  99.4630 198.9891 0194182  28.9624 332.2171 14.37179668231479","2011-043B","37782","7145.969","100.196","906.595","629.072"
"GENERATED VIA SPACETRACK.ORG API","JSPOC","40908","LILACSAT 2","PAYLOAD","U","15049K","2016-01-14 02:37:55","791264","15.12095846","0.0015548","97.4602","24.58","202.3099","246.1314","0","999","1754","9.8133e-05","1.629e-05","0","1980124","0 LILACSAT 2","1 40908U 15049K   16014.10967351  .00001629  00000-0  98133-4 0  9990","2 40908  97.4602  24.5800 0015548 202.3099 246.1314 15.12095846 17547","2015-049K","40908","6907.946","95.232","540.551","519.070"
"GENERATED VIA SPACETRACK.ORG API","JSPOC","27006","SL-16 R/B","ROCKET BODY","U","01056F","2016-01-14 02:38:00","758400","13.70970938","0.0014076","99.2337","167.429","224.0971","263.6453","0","999","70523","8.2187e-07","-4.2e-07","0","1980043","0 SL-16 R/B","1 27006U 01056F   16014.10973100 -.00000042  00000-0  82187-6 0  9999","2 27006  99.2337 167.4290 0014076 224.0971 263.6453 13.70970938705235","2001-056F","27006","7374.224","105.035","1006.469","985.709"
"GENERATED VIA SPACETRACK.ORG API","JSPOC","41180","ORBCOMM FM 119","PAYLOAD","U","15081B","2016-01-14 02:39:04","465440","14.78004241","0.0031315","47.0029","250.4588","130.7584","229.8088","0","999","341","0.00010671","5.76e-06","0","1980223","0 ORBCOMM FM 119","1 41180U 15081B   16014.11046835  .00000576  00000-0  10671-3 0  9995","2 41180  47.0029 250.4588 0031315 130.7584 229.8088 14.78004241  3417","2015-081B","41180","7013.767","97.428","657.596","613.669"
"GENERATED VIA SPACETRACK.ORG API","JSPOC","35494","BREEZE-M R/B","ROCKET BODY","U","09034B","2016-01-14 02:39:15","730272","2.04371953","0.6039355","22.9646","173.7046","336.1907","276.9304","0","999","4881","0","1.58e-06","0","1980109","0 BREEZE-M R/B","1 35494U 09034B   16014.11059873  .00000158  00000-0  00000+0 0  9990","2 35494  22.9646 173.7046 6039355 336.1907 276.9304  2.04371953 48810","2009-034B","35494","26229.357","704.597","35692.061","4010.382"
"GENERATED VIA SPACETRACK.ORG API","JSPOC","4786","COSMOS 382","PAYLOAD","U","70103A","2016-01-14 02:39:27","900576","8.42042797","0.1332387","55.8646","235.9453","321.9102","155.0853","0","999","38792","0","-2.3e-07","0","1980124","0 COSMOS 382","1 04786U 70103A   16014.11073959 -.00000023  00000-0  00000+0 0  9998","2 04786  55.8646 235.9453 1332387 321.9102 155.0853  8.42042797387926","1970-103A","4786","10205.768","171.012","5187.437","2467.830"
"GENERATED VIA SPACETRACK.ORG API","JSPOC","39167","ATLAS 5 CENTAUR R/B","ROCKET BODY","U","13023B","2016-01-14 02:39:55","499328","1.91782859","0.0173876","55.9512","63.7955","306.591","51.8894","0","999","1865","0","-3.5e-07","0","1980033","0 ATLAS 5 CENTAUR R/B","1 39167U 13023B   16014.11105902 -.00000035  00000-0  00000+0 0  9994","2 39167  55.9512  63.7955 0173876 306.5910  51.8894  1.91782859 18651","2013-023B","39167","27364.991","750.849","21462.667","20511.044"
"GENERATED VIA SPACETRACK.ORG API","JSPOC","21153","SL-8 R/B","ROCKET BODY","U","91019B","2016-01-14 02:40:00","721344","13.75816458","0.0029471","82.9232","229.0574","159.1194","312.7042","0","999","24715","0.00012239","1.34e-06","0","1980029","0 SL-8 R/B","1 21153U 91019B   16014.11111946  .00000134  00000-0  12239-3 0  9996","2 21153  82.9232 229.0574 0029471 159.1194 312.7042 13.75816458247158","1991-019B","21153","7356.899","104.665","1000.446","957.083"
"GENERATED VIA SPACETRACK.ORG API","JSPOC","40722","FLOCK 1E 2","PAYLOAD","U","98067GE","2016-01-14 02:40:52","88736","15.78370987","0.0002444","51.6376","98.8927","312.1884","109.3016","0","999","2883","0.0011027","0.00198448","0","1980024","0 FLOCK 1E 2","1 40722U 98067GE  16014.11171399  .00198448  00000-0  11027-2 0  9996","2 40722  51.6376  98.8927 0002444 312.1884 109.3016 15.78370987 28835","1998-067GE","40722","6713.192","91.233","336.698","333.417"
"GENERATED VIA SPACETRACK.ORG API","JSPOC","23735","COSMOS 2324 (GLONASS)","PAYLOAD","U","95068B","2016-01-14 02:40:54","353280","2.13101972","0.0007067","66.5485","327.0882","227.6408","132.3054","0","999","15632","0","-2.6e-07","0","1980056","0 COSMOS 2324 (GLONASS)","1 23735U 95068B   16014.11174020 -.00000026  00000-0  00000+0 0  9994","2 23735  66.5485 327.0882 0007067 227.6408 132.3054  2.13101972156326","1995-068B","23735","25508.026","675.732","19147.918","19111.865"
"GENERATED VIA SPACETRACK.ORG API","JSPOC","23645","SL-6 R/B(2)","ROCKET BODY","U","95042D","2016-01-14 02:41:30","465024","1.9602117","0.751241","61.8422","85.9559","275.8452","11.3311","0","999","14621","0.00040646","-2.64e-06","0","1980199","0 SL-6 R/B(2)","1 23645U 95042D   16014.11215816 -.00000264  00000-0  40646-3 0  9993","2 23645  61.8422  85.9559 7512410 275.8452  11.3311  1.96021170146210","1995-042D","23645","26969.104","734.614","40851.266","330.672"
"GENERATED VIA SPACETRACK.ORG API","JSPOC","13607","COSMOS 1415 (GLONASS)","PAYLOAD","U","82100E","2016-01-14 02:41:33","857952","2.13810379","0.0003119","63.953","199.3493","18.9254","137.3177","0","999","25970","0","9.5e-07","0","1980012","0 COSMOS 1415 (GLONASS)","1 13607U 82100E   16014.11219743  .00000095  00000-0  00000+0 0  9991","2 13607  63.9530 199.3493 0003119  18.9254 137.3177  2.13810379259702","1982-100E","13607","25451.652","673.493","19081.455","19065.579"
"GENERATED VIA SPACETRACK.ORG API","JSPOC","29479","HINODE (SOLAR B)","PAYLOAD","U","06041A","2016-01-14 02:41:45","999744","14.64613092","0.0018287","98.1542","16.7929","56.1799","304.1142","0","999","49726","6.612e-05","3.04e-06","0","1980083","0 HINODE (SOLAR B)","1 29479U 06041A   16014.11233796  .00000304  00000-0  66120-4 0  9992","2 29479  98.1542  16.7929 0018287  56.1799 304.1142 14.64613092497268","2006-041A","29479","7056.454","98.319","691.223","665.415"
"GENERATED VIA SPACETRACK.ORG API","JSPOC","40354","SL-27 R/B","ROCKET BODY","U","14084B","2016-01-14 02:42:21","867840","15.36112182","0.0041509","74.7428","123.9828","46.9494","313.5179","0","999","5994","9.3476e-05","3.335e-05","0","1980010","0 SL-27 R/B","1 40354U 14084B   16014.11275310  .00003335  00000-0  93476-4 0  9992","2 40354  74.7428 123.9828 0041509  46.9494 313.5179 15.36112182 59944","2014-084B","40354","6835.756","93.743","485.995","429.246"
"GENERATED VIA SPACETRACK.ORG API","JSPOC","23401","SL-12 R/B(2)","ROCKET BODY","U","94076F","2016-01-14 02:43:11","132256","2.13553589","0.0012783","63.9701","199.1174","311.0553","104.8205","0","999","16497","0","9.6e-07","0","1980049","0 SL-12 R/B(2)","1 23401U 94076F   16014.11332329  .00000096  00000-0  00000+0 0  9996","2 23401  63.9701 199.1174 0012783 311.0553 104.8205  2.13553589164977","1994-076F","23401","25472.051","674.303","19126.477","19061.355"
"GENERATED VIA SPACETRACK.ORG API","JSPOC","40277","EXPRESS AM-6","PAYLOAD","U","14064A","2016-01-14 02:43:40","606752","1.00271583","0.0003734","0.0401","140.9868","145.6279","280.333","0","999","450","0","9.4e-07","0","1980212","0 EXPRESS AM-6","1 40277U 14064A   16014.11366443  .00000094  00000-0  00000+0 0  9997","2 40277   0.0401 140.9868 0003734 145.6279 280.3330  1.00271583  4509","2014-064A","40277","42164.788","1436.099","35802.397","35770.909"
"GENERATED VIA SPACETRACK.ORG API","JSPOC","10514","METEOR 2-3","PAYLOAD","U","77117A","2016-01-14 02:43:59","441088","14.10344989","0.0022716","81.2059","11.013","304.0472","55.8541","0","999","95835","-1.1678e-05","-9e-08","0","1980077","0 METEOR 2-3","1 10514U 77117A   16014.11388242 -.00000009  00000-0 -11678-4 0  9993","2 10514  81.2059  11.0130 0022716 304.0472  55.8541 14.10344989958353","1977-117A","10514","7236.328","102.102","874.631","841.755"
"GENERATED VIA SPACETRACK.ORG API","JSPOC","39423","WNISAT 1","PAYLOAD","U","13066H","2016-01-14 02:44:38","102496","14.52599696","0.0174923","97.6804","40.1878","264.4842","93.6392","0","999","11372","8.9891e-05","3.99e-06","0","1980069","0 WNISAT 1","1 39423U 13066H   16014.11432989  .00000399  00000-0  89891-4 0  9996","2 39423  97.6804  40.1878 0174923 264.4842  93.6392 14.52599696113723","2013-066H","39423","7095.307","99.132","841.285","593.059"
"GENERATED VIA SPACETRACK.ORG API","JSPOC","25568","ASTRID 2","PAYLOAD","U","98072B","2016-01-14 02:44:50","5824","13.72449112","0.0023876","82.9486","10.3195","223.515","180.6132","0","999","85606","7.5633e-05","8.4e-07","0","1980077","0 ASTRID 2","1 25568U 98072B   16014.11446766  .00000084  00000-0  75633-4 0  9999","2 25568  82.9486  10.3195 0023876 223.5150 180.6132 13.72449112856068","1998-072B","25568","7368.928","104.921","1008.387","973.199"
